{
"type": "FeatureCollection",
"name": "quadrant",
"crs": { "type": "name", "properties": { "name": "urn:ogc:def:crs:OGC:1.3:CRS84" } },
"features": [
{ "type": "Feature", "properties": { "id": "node/243320943", "@id": "node/243320943", "amenity": "bus_station", "bus": "yes", "check_date": null, "fixme": null, "internet_access": null, "internet_access:fee": null, "level": null, "name": "Årnes stasjon", "name:no": null, "network": null, "official_name": null, "operator": null, "public_transport": "station", "railway": null, "railway:ref": null, "ref": null, "ref:nsrs": "6497", "route_ref": "2672;3655;3657;3671;3673;3674;3677;3681;821;822;833;834;835;836;838", "shelter": null, "train": null, "wheelchair": "yes", "wikidata": null }, "geometry": { "type": "Point", "coordinates": [ 11.465094, 60.123333 ] } },
{ "type": "Feature", "properties": { "id": "node/257628800", "@id": "node/257628800", "amenity": "bus_station", "bus": null, "check_date": null, "fixme": null, "internet_access": "no", "internet_access:fee": null, "level": null, "name": "Blakstad bussterminal", "name:no": null, "network": "Ruter", "official_name": null, "operator": null, "public_transport": null, "railway": null, "railway:ref": null, "ref": null, "ref:nsrs": "3209", "route_ref": "251;252;262;701;713;722", "shelter": null, "train": null, "wheelchair": null, "wikidata": null }, "geometry": { "type": "Point", "coordinates": [ 10.465262, 59.819264 ] } },
{ "type": "Feature", "properties": { "id": "node/361136246", "@id": "node/361136246", "amenity": "bus_station", "bus": null, "check_date": null, "fixme": null, "internet_access": null, "internet_access:fee": null, "level": null, "name": "Kløfta stasjon", "name:no": null, "network": null, "official_name": null, "operator": null, "public_transport": null, "railway": null, "railway:ref": null, "ref": null, "ref:nsrs": "5001", "route_ref": null, "shelter": null, "train": null, "wheelchair": null, "wikidata": null }, "geometry": { "type": "Point", "coordinates": [ 11.138586, 60.07493 ] } },
{ "type": "Feature", "properties": { "id": "node/446822767", "@id": "node/446822767", "amenity": "bus_station", "bus": "yes", "check_date": null, "fixme": null, "internet_access": null, "internet_access:fee": null, "level": null, "name": "Hamar skysstasjon", "name:no": null, "network": null, "official_name": null, "operator": null, "public_transport": "station", "railway": null, "railway:ref": null, "ref": null, "ref:nsrs": "10559", "route_ref": "001;002;003;005;017;032;040;041;051;055;108;170;350", "shelter": null, "train": null, "wheelchair": "yes", "wikidata": null }, "geometry": { "type": "Point", "coordinates": [ 11.080375, 60.791363 ] } },
{ "type": "Feature", "properties": { "id": "node/541012758", "@id": "node/541012758", "amenity": "bus_station", "bus": "yes", "check_date": null, "fixme": null, "internet_access": null, "internet_access:fee": null, "level": null, "name": "Helsfyr T", "name:no": null, "network": null, "official_name": null, "operator": null, "public_transport": "station", "railway": null, "railway:ref": null, "ref": null, "ref:nsrs": "6071", "route_ref": "21;28;331;344;401;404;411;431;58;66;68;76;76B;T15;T2", "shelter": null, "train": null, "wheelchair": "yes", "wikidata": null }, "geometry": { "type": "Point", "coordinates": [ 10.80114, 59.912759 ] } },
{ "type": "Feature", "properties": { "id": "node/544570397", "@id": "node/544570397", "amenity": "bus_station", "bus": null, "check_date": null, "fixme": null, "internet_access": null, "internet_access:fee": null, "level": null, "name": "Fagernes skysstasjon", "name:no": null, "network": null, "official_name": null, "operator": null, "public_transport": null, "railway": null, "railway:ref": null, "ref": null, "ref:nsrs": "11189", "route_ref": null, "shelter": null, "train": null, "wheelchair": "yes", "wikidata": null }, "geometry": { "type": "Point", "coordinates": [ 9.239043, 60.98583 ] } },
{ "type": "Feature", "properties": { "id": "node/570206829", "@id": "node/570206829", "amenity": "bus_station", "bus": "yes", "check_date": null, "fixme": null, "internet_access": null, "internet_access:fee": null, "level": null, "name": "Sandvika bussterminal", "name:no": null, "network": null, "official_name": null, "operator": null, "public_transport": "station", "railway": null, "railway:ref": null, "ref": null, "ref:nsrs": "4030", "route_ref": "121;151;152;160;262;705;706;731;732;751;753;761;762", "shelter": "yes", "train": null, "wheelchair": "limited", "wikidata": null }, "geometry": { "type": "Point", "coordinates": [ 10.524556, 59.892905 ] } },
{ "type": "Feature", "properties": { "id": "node/939732469", "@id": "node/939732469", "amenity": "bus_station", "bus": null, "check_date": null, "fixme": null, "internet_access": null, "internet_access:fee": null, "level": null, "name": "Kongsvinger stasjon", "name:no": null, "network": "Inlandstrafikk", "official_name": null, "operator": null, "public_transport": null, "railway": null, "railway:ref": null, "ref": null, "ref:nsrs": "9851", "route_ref": null, "shelter": null, "train": null, "wheelchair": null, "wikidata": null }, "geometry": { "type": "Point", "coordinates": [ 12.005095, 60.187459 ] } },
{ "type": "Feature", "properties": { "id": "node/1175143489", "@id": "node/1175143489", "amenity": "bus_station", "bus": "yes", "check_date": null, "fixme": null, "internet_access": "no", "internet_access:fee": null, "level": null, "name": "Asker stasjon", "name:no": null, "network": null, "official_name": null, "operator": null, "public_transport": "station", "railway": null, "railway:ref": null, "ref": null, "ref:nsrs": "3247", "route_ref": "266;701;704;706;71;713;721;722;723;724;725;726", "shelter": null, "train": null, "wheelchair": "yes", "wikidata": null }, "geometry": { "type": "Point", "coordinates": [ 10.433721, 59.83331 ] } },
{ "type": "Feature", "properties": { "id": "node/1277068584", "@id": "node/1277068584", "amenity": "bus_station", "bus": null, "check_date": null, "fixme": null, "internet_access": null, "internet_access:fee": null, "level": null, "name": "Elverum skysstasjon", "name:no": null, "network": null, "official_name": null, "operator": null, "public_transport": null, "railway": null, "railway:ref": null, "ref": null, "ref:nsrs": "10456", "route_ref": null, "shelter": null, "train": null, "wheelchair": "yes", "wikidata": null }, "geometry": { "type": "Point", "coordinates": [ 11.547127, 60.882234 ] } },
{ "type": "Feature", "properties": { "id": "node/1289150672", "@id": "node/1289150672", "amenity": "bus_station", "bus": "yes", "check_date": null, "fixme": null, "internet_access": null, "internet_access:fee": null, "level": null, "name": "Ringebu skysstasjon", "name:no": null, "network": null, "official_name": null, "operator": null, "public_transport": "station", "railway": null, "railway:ref": null, "ref": null, "ref:nsrs": "13425", "route_ref": "142;420;421;424", "shelter": null, "train": null, "wheelchair": null, "wikidata": null }, "geometry": { "type": "Point", "coordinates": [ 10.138547, 61.529511 ] } },
{ "type": "Feature", "properties": { "id": "node/1289178407", "@id": "node/1289178407", "amenity": "bus_station", "bus": null, "check_date": null, "fixme": null, "internet_access": null, "internet_access:fee": null, "level": null, "name": "Raufoss stasjon", "name:no": null, "network": null, "official_name": null, "operator": null, "public_transport": null, "railway": null, "railway:ref": null, "ref": null, "ref:nsrs": "14089", "route_ref": "150;301;302;330;380;388;800", "shelter": null, "train": null, "wheelchair": null, "wikidata": null }, "geometry": { "type": "Point", "coordinates": [ 10.613329, 60.722593 ] } },
{ "type": "Feature", "properties": { "id": "node/1289178416", "@id": "node/1289178416", "amenity": "bus_station", "bus": null, "check_date": null, "fixme": null, "internet_access": null, "internet_access:fee": null, "level": null, "name": "Lillehammer skysstasjon", "name:no": null, "network": null, "official_name": null, "operator": null, "public_transport": null, "railway": null, "railway:ref": null, "ref": null, "ref:nsrs": "14115", "route_ref": "001;002;003;004;005;006;009;142;150;151;201;211;231;233;242;260;262;270", "shelter": null, "train": null, "wheelchair": "yes", "wikidata": null }, "geometry": { "type": "Point", "coordinates": [ 10.461624, 61.114744 ] } },
{ "type": "Feature", "properties": { "id": "node/1289178789", "@id": "node/1289178789", "amenity": "bus_station", "bus": null, "check_date": "2023-02-19T00:00:00", "fixme": null, "internet_access": null, "internet_access:fee": null, "level": null, "name": "Eidsvoll stasjon", "name:no": null, "network": null, "official_name": null, "operator": null, "public_transport": null, "railway": null, "railway:ref": null, "ref": null, "ref:nsrs": "3097", "route_ref": "3732;3734;3771;3872;811;812;813;814;816;821;822", "shelter": null, "train": null, "wheelchair": null, "wikidata": null }, "geometry": { "type": "Point", "coordinates": [ 11.247125, 60.330174 ] } },
{ "type": "Feature", "properties": { "id": "node/1289230294", "@id": "node/1289230294", "amenity": "bus_station", "bus": null, "check_date": null, "fixme": null, "internet_access": null, "internet_access:fee": null, "level": null, "name": "Jessheim stasjon", "name:no": null, "network": null, "official_name": null, "operator": null, "public_transport": null, "railway": null, "railway:ref": null, "ref": null, "ref:nsrs": "4961", "route_ref": "318;3573;3574;3576;3873;811;818;838;853;855", "shelter": null, "train": null, "wheelchair": null, "wikidata": null }, "geometry": { "type": "Point", "coordinates": [ 11.176129, 60.141896 ] } },
{ "type": "Feature", "properties": { "id": "node/1357052782", "@id": "node/1357052782", "amenity": "bus_station", "bus": null, "check_date": null, "fixme": null, "internet_access": null, "internet_access:fee": null, "level": null, "name": "Brandbu skysstasjon", "name:no": null, "network": null, "official_name": null, "operator": null, "public_transport": null, "railway": null, "railway:ref": null, "ref": null, "ref:nsrs": "11490", "route_ref": "150;153;703;704;705;707;748", "shelter": null, "train": null, "wheelchair": null, "wikidata": null }, "geometry": { "type": "Point", "coordinates": [ 10.506174, 60.420054 ] } },
{ "type": "Feature", "properties": { "id": "node/3037328995", "@id": "node/3037328995", "amenity": "bus_station", "bus": null, "check_date": null, "fixme": null, "internet_access": null, "internet_access:fee": null, "level": null, "name": "Dokka skysstasjon", "name:no": null, "network": null, "official_name": null, "operator": null, "public_transport": null, "railway": null, "railway:ref": null, "ref": null, "ref:nsrs": "13232", "route_ref": "136;153;161;162;651;720;801;815;820;821;822;825;851", "shelter": null, "train": null, "wheelchair": null, "wikidata": null }, "geometry": { "type": "Point", "coordinates": [ 10.073157, 60.833913 ] } },
{ "type": "Feature", "properties": { "id": "node/6142308795", "@id": "node/6142308795", "amenity": "bus_station", "bus": null, "check_date": null, "fixme": null, "internet_access": null, "internet_access:fee": null, "level": null, "name": "Åmot skysstasjon", "name:no": null, "network": null, "official_name": null, "operator": null, "public_transport": null, "railway": null, "railway:ref": null, "ref": null, "ref:nsrs": "16902", "route_ref": null, "shelter": null, "train": null, "wheelchair": null, "wikidata": null }, "geometry": { "type": "Point", "coordinates": [ 9.928187, 59.893516 ] } },
{ "type": "Feature", "properties": { "id": "node/6372801927", "@id": "node/6372801927", "amenity": "bus_station", "bus": null, "check_date": null, "fixme": null, "internet_access": null, "internet_access:fee": null, "level": null, "name": "Lena skysstasjon", "name:no": null, "network": null, "official_name": null, "operator": null, "public_transport": null, "railway": null, "railway:ref": null, "ref": null, "ref:nsrs": "13258", "route_ref": null, "shelter": null, "train": null, "wheelchair": null, "wikidata": null }, "geometry": { "type": "Point", "coordinates": [ 10.822217, 60.677205 ] } },
{ "type": "Feature", "properties": { "id": "node/6372810577", "@id": "node/6372810577", "amenity": "bus_station", "bus": "yes", "check_date": null, "fixme": null, "internet_access": null, "internet_access:fee": null, "level": null, "name": "Vinstra skysstasjon", "name:no": null, "network": null, "official_name": null, "operator": null, "public_transport": "station", "railway": null, "railway:ref": null, "ref": null, "ref:nsrs": "11272", "route_ref": null, "shelter": null, "train": null, "wheelchair": null, "wikidata": null }, "geometry": { "type": "Point", "coordinates": [ 9.747473, 61.595439 ] } },
{ "type": "Feature", "properties": { "id": "node/6372876946", "@id": "node/6372876946", "amenity": "bus_station", "bus": null, "check_date": null, "fixme": null, "internet_access": null, "internet_access:fee": null, "level": null, "name": "Hønefoss sentrum", "name:no": null, "network": null, "official_name": null, "operator": null, "public_transport": null, "railway": null, "railway:ref": null, "ref": null, "ref:nsrs": "16961", "route_ref": null, "shelter": null, "train": null, "wheelchair": null, "wikidata": null }, "geometry": { "type": "Point", "coordinates": [ 10.257483, 60.165219 ] } },
{ "type": "Feature", "properties": { "id": "node/6373566688", "@id": "node/6373566688", "amenity": "bus_station", "bus": "yes", "check_date": null, "fixme": null, "internet_access": null, "internet_access:fee": null, "level": null, "name": "Nesoddtangen", "name:no": null, "network": null, "official_name": null, "operator": null, "public_transport": "station", "railway": null, "railway:ref": null, "ref": null, "ref:nsrs": "5587", "route_ref": null, "shelter": null, "train": null, "wheelchair": "yes", "wikidata": null }, "geometry": { "type": "Point", "coordinates": [ 10.656821, 59.870676 ] } },
{ "type": "Feature", "properties": { "id": "node/6373566873", "@id": "node/6373566873", "amenity": "bus_station", "bus": null, "check_date": null, "fixme": null, "internet_access": null, "internet_access:fee": null, "level": null, "name": "Olavsgaard", "name:no": null, "network": null, "official_name": null, "operator": null, "public_transport": null, "railway": null, "railway:ref": null, "ref": null, "ref:nsrs": "5517", "route_ref": null, "shelter": null, "train": null, "wheelchair": "yes", "wikidata": null }, "geometry": { "type": "Point", "coordinates": [ 11.001507, 59.979161 ] } },
{ "type": "Feature", "properties": { "id": "node/6373567073", "@id": "node/6373567073", "amenity": "bus_station", "bus": null, "check_date": null, "fixme": null, "internet_access": null, "internet_access:fee": null, "level": null, "name": "Nannestad torg", "name:no": null, "network": null, "official_name": null, "operator": null, "public_transport": null, "railway": null, "railway:ref": null, "ref": null, "ref:nsrs": "3509", "route_ref": null, "shelter": null, "train": null, "wheelchair": "limited", "wikidata": null }, "geometry": { "type": "Point", "coordinates": [ 11.013437, 60.219756 ] } },
{ "type": "Feature", "properties": { "id": "node/6373567453", "@id": "node/6373567453", "amenity": "bus_station", "bus": null, "check_date": null, "fixme": null, "internet_access": null, "internet_access:fee": null, "level": null, "name": "Oslo lufthavn", "name:no": null, "network": null, "official_name": null, "operator": null, "public_transport": null, "railway": null, "railway:ref": null, "ref": null, "ref:nsrs": "5357", "route_ref": null, "shelter": null, "train": null, "wheelchair": null, "wikidata": null }, "geometry": { "type": "Point", "coordinates": [ 11.097244, 60.193473 ] } },
{ "type": "Feature", "properties": { "id": "node/6373567489", "@id": "node/6373567489", "amenity": "bus_station", "bus": null, "check_date": null, "fixme": null, "internet_access": null, "internet_access:fee": null, "level": null, "name": "Lørenskog sentrum", "name:no": null, "network": null, "official_name": null, "operator": null, "public_transport": null, "railway": null, "railway:ref": null, "ref": null, "ref:nsrs": "5367", "route_ref": null, "shelter": null, "train": null, "wheelchair": null, "wikidata": null }, "geometry": { "type": "Point", "coordinates": [ 10.954844, 59.927947 ] } },
{ "type": "Feature", "properties": { "id": "node/6373811495", "@id": "node/6373811495", "amenity": "bus_station", "bus": null, "check_date": null, "fixme": null, "internet_access": null, "internet_access:fee": null, "level": null, "name": "Hauketo stasjon", "name:no": null, "network": null, "official_name": null, "operator": null, "public_transport": null, "railway": null, "railway:ref": null, "ref": null, "ref:nsrs": "6710", "route_ref": null, "shelter": null, "train": null, "wheelchair": null, "wikidata": null }, "geometry": { "type": "Point", "coordinates": [ 10.803321, 59.84612 ] } },
{ "type": "Feature", "properties": { "id": "node/6373813347", "@id": "node/6373813347", "amenity": "bus_station", "bus": null, "check_date": null, "fixme": null, "internet_access": null, "internet_access:fee": null, "level": null, "name": "Skullerud", "name:no": null, "network": null, "official_name": null, "operator": null, "public_transport": null, "railway": null, "railway:ref": null, "ref": null, "ref:nsrs": "5887", "route_ref": null, "shelter": null, "train": null, "wheelchair": null, "wikidata": null }, "geometry": { "type": "Point", "coordinates": [ 10.839944, 59.866866 ] } },
{ "type": "Feature", "properties": { "id": "node/6373814179", "@id": "node/6373814179", "amenity": "bus_station", "bus": null, "check_date": null, "fixme": null, "internet_access": null, "internet_access:fee": null, "level": null, "name": "Mortensrud T", "name:no": null, "network": null, "official_name": null, "operator": null, "public_transport": null, "railway": null, "railway:ref": null, "ref": null, "ref:nsrs": "5690", "route_ref": null, "shelter": null, "train": null, "wheelchair": "limited", "wikidata": null }, "geometry": { "type": "Point", "coordinates": [ 10.829163, 59.849605 ] } },
{ "type": "Feature", "properties": { "id": "node/8196191556", "@id": "node/8196191556", "amenity": "bus_station", "bus": null, "check_date": null, "fixme": null, "internet_access": null, "internet_access:fee": null, "level": null, "name": "Lierbyen bussterminal", "name:no": null, "network": null, "official_name": null, "operator": null, "public_transport": null, "railway": null, "railway:ref": null, "ref": null, "ref:nsrs": "16743", "route_ref": null, "shelter": null, "train": null, "wheelchair": null, "wikidata": null }, "geometry": { "type": "Point", "coordinates": [ 10.24221, 59.787076 ] } },
{ "type": "Feature", "properties": { "id": "node/10032828284", "@id": "node/10032828284", "amenity": "bus_station", "bus": null, "check_date": null, "fixme": null, "internet_access": null, "internet_access:fee": null, "level": null, "name": "Skarnes Korsmo", "name:no": null, "network": null, "official_name": null, "operator": null, "public_transport": null, "railway": null, "railway:ref": null, "ref": null, "ref:nsrs": "9672", "route_ref": null, "shelter": null, "train": null, "wheelchair": "limited", "wikidata": null }, "geometry": { "type": "Point", "coordinates": [ 11.674527, 60.255762 ] } },
{ "type": "Feature", "properties": { "id": "node/10128519575", "@id": "node/10128519575", "amenity": "bus_station", "bus": "yes", "check_date": null, "fixme": null, "internet_access": "no", "internet_access:fee": null, "level": null, "name": "Lensmannslia [Buss for tog]", "name:no": null, "network": null, "official_name": null, "operator": null, "public_transport": "station", "railway": null, "railway:ref": null, "ref": null, "ref:nsrs": null, "route_ref": null, "shelter": null, "train": null, "wheelchair": null, "wikidata": null }, "geometry": { "type": "Point", "coordinates": [ 10.4332541, 59.8310534 ] } }
]
}
